XRISM                   
1 57800U 23137A   24260.94562020  .00010595  00000+0  76597-3 0  9994
2 57800  31.0031 147.9309 0009364  33.3519 326.7705 15.02796855 56413
